ONEWEB-0063             
1 45448U 20020AA  23257.89436377  .00000560  00000+0  15440-2 0  9991
2 45448  87.8941 220.9438 0001760  84.7957 275.3372 13.11415895170809
ONEWEB-0019             
1 45449U 20020AB  23258.17410379 -.00000246  00000+0 -72961-3 0  9993
2 45449  87.8941 220.8886 0002061  74.2657 285.8699 13.11420167170695
ONEWEB-0094             
1 45450U 20020AC  23257.84657243 -.00000082  00000+0 -24481-3 0  9993
2 45450  87.9167 205.8607 0002008  80.0663 280.0695 13.17649471173788
ONEWEB-0087             
1 45451U 20020AD  23257.90283880  .00000336  00000+0  91255-3 0  9996
2 45451  87.8936 220.9323 0002129  90.8632 269.2740 13.11413805170695
ONEWEB-0082             
1 45452U 20020AE  23257.90495664  .00000246  00000+0  65726-3 0  9996
2 45452  87.8940 220.9177 0002159  81.2347 278.9025 13.11413309170780
ONEWEB-0050             
1 45453U 20020AF  23258.06912610  .00002992  00000+0  24308-3 0  9991
2 45453  87.9959  98.7442 0024419 354.6548   5.4420 14.99046032190372
ONEWEB-0034             
1 45454U 20020AG  23258.15292504 -.00000533  00000+0 -15408-2 0  9996
2 45454  87.8939 220.8865 0002000  84.2672 275.8684 13.11415619170741
ONEWEB-0060             
1 45455U 20020AH  23257.85514443 -.00000536  00000+0 -15493-2 0  9999
2 45455  87.8936 220.9468 0002000  84.6482 275.4874 13.11412274170653
